{"type": "FeatureCollection", "features": [ {"type": "Feature", "properties": {"norad_id": 66598, "name": "STARLINK-35981", "group": "last-30-days", "lat": 30.494158115951368, "lon": -124.72730297062259, "alt_km": 412.26856987820156, "timestamp": "2025-12-12T03:50:51.177287+00:00", "meta": {"OBJECT_NAME": "STARLINK-35981", "OBJECT_ID": "2025-270L", "EPOCH": "2025-12-11T14:00:01.999872", "MEAN_MOTION": 15.50860535, "ECCENTRICITY": 0.00017347, "INCLINATION": 42.9998, "RA_OF_ASC_NODE": 199.4516, "ARG_OF_PERICENTER": 252.5221, "MEAN_ANOMALY": 171.1893, "EPHEMERIS_TYPE": 0, "CLASSIFICATION_TYPE": "U", "NORAD_CAT_ID": 66598, "ELEMENT_SET_NO": 999, "REV_AT_EPOCH": 405, "BSTAR": -0.0090360863, "MEAN_MOTION_DOT": -0.00502832, "MEAN_MOTION_DDOT": 0}, "tle": {"line1": "1 66598U 25270L   25345.58335648 -.00502832  00000+0 -90361-2 0  9993", "line2": "2 66598  42.9998 199.4516 0001734 252.5221 171.1893 15.50860535  4053"}}, "geometry": {"type": "Point", "coordinates": [-124.72730297062259, 30.494158115951368]}}, {"type": "Feature", "properties": {"norad_id": 66599, "name": "STARLINK-35930", "group": "last-30-days", "lat": 31.48426166822304, "lon": -122.83976893699618, "alt_km": 409.9816608291949, "timestamp": "2025-12-12T03:50:51.177297+00:00", "meta": {"OBJECT_NAME": "STARLINK-35930", "OBJECT_ID": "2025-270M", "EPOCH": "2025-12-11T14:00:01.999872", "MEAN_MOTION": 15.50480559, "ECCENTRICITY": 2.644e-05, "INCLINATION": 42.9997, "RA_OF_ASC_NODE": 199.4474, "ARG_OF_PERICENTER": 309.7334, "MEAN_ANOMALY": 115.9134, "EPHEMERIS_TYPE": 0, "CLASSIFICATION_TYPE": "U", "NORAD_CAT_ID": 66599, "ELEMENT_SET_NO": 999, "REV_AT_EPOCH": 421, "BSTAR": 0.0017390402, "MEAN_MOTION_DOT": 0.00102666, "MEAN_MOTION_DDOT": 0}, "tle": {"line1": "1 66599U 25270M   25345.58335648  .00102666  00000+0  17390-2 0  9994", "line2": "2 66599  42.9997 199.4474 0000264 309.7334 115.9134 15.50480559  4219"}}, "geometry": {"type": "Point", "coordinates": [-122.83976893699618, 31.48426166822304]}}, {"type": "Feature", "properties": {"norad_id": 66600, "name": "STARLINK-35980", "group": "last-30-days", "lat": 32.46920349920577, "lon": -120.86536772181664, "alt_km": 411.49489367846945, "timestamp": "2025-12-12T03:50:51.177308+00:00", "meta": {"OBJECT_NAME": "STARLINK-35980", "OBJECT_ID": "2025-270N", "EPOCH": "2025-12-11T14:00:01.999872", "MEAN_MOTION": 15.50603673, "ECCENTRICITY": 0.0002418, "INCLINATION": 42.9998, "RA_OF_ASC_NODE": 199.4427, "ARG_OF_PERICENTER": 264.0113, "MEAN_ANOMALY": 163.5599, "EPHEMERIS_TYPE": 0, "CLASSIFICATION_TYPE": "U", "NORAD_CAT_ID": 66600, "ELEMENT_SET_NO": 999, "REV_AT_EPOCH": 411, "BSTAR": -0.0018172221, "MEAN_MOTION_DOT": -0.00105628, "MEAN_MOTION_DDOT": 0}, "tle": {"line1": "1 66600U 25270N   25345.58335648 -.00105628  00000+0 -18172-2 0  9999", "line2": "2 66600  42.9998 199.4427 0002418 264.0113 163.5599 15.50603673  4119"}}, "geometry": {"type": "Point", "coordinates": [-120.86536772181664, 32.46920349920577]}}, {"type": "Feature", "properties": {"norad_id": 66601, "name": "STARLINK-35978", "group": "last-30-days", "lat": 33.40793835258955, "lon": -118.87967134488612, "alt_km": 411.182923265299, "timestamp": "2025-12-12T03:50:51.177318+00:00", "meta": {"OBJECT_NAME": "STARLINK-35978", "OBJECT_ID": "2025-270P", "EPOCH": "2025-12-11T14:00:01.999872", "MEAN_MOTION": 15.50589332, "ECCENTRICITY": 0.00020202, "INCLINATION": 42.9998, "RA_OF_ASC_NODE": 199.4378, "ARG_OF_PERICENTER": 258.1027, "MEAN_ANOMALY": 171.3893, "EPHEMERIS_TYPE": 0, "CLASSIFICATION_TYPE": "U", "NORAD_CAT_ID": 66601, "ELEMENT_SET_NO": 999, "REV_AT_EPOCH": 405, "BSTAR": -0.0014129526, "MEAN_MOTION_DOT": -0.00082401, "MEAN_MOTION_DDOT": 0}, "tle": {"line1": "1 66601U 25270P   25345.58335648 -.00082401  00000+0 -14130-2 0  9993", "line2": "2 66601  42.9998 199.4378 0002020 258.1027 171.3893 15.50589332  4054"}}, "geometry": {"type": "Point", "coordinates": [-118.87967134488612, 33.40793835258955]}}, {"type": "Feature", "properties": {"norad_id": 66602, "name": "STARLINK-36050", "group": "last-30-days", "lat": 32.73996200775031, "lon": -120.30383823068078, "alt_km": 419.43012767120035, "timestamp": "2025-12-12T03:50:51.177328+00:00", "meta": {"OBJECT_NAME": "STARLINK-36050", "OBJECT_ID": "2025-270Q", "EPOCH": "2025-12-11T14:00:01.999872", "MEAN_MOTION": 15.50284932, "ECCENTRICITY": 0.00016679, "INCLINATION": 42.9996, "RA_OF_ASC_NODE": 199.4328, "ARG_OF_PERICENTER": 263.1005, "MEAN_ANOMALY": 168.2533, "EPHEMERIS_TYPE": 0, "CLASSIFICATION_TYPE": "U", "NORAD_CAT_ID": 66602, "ELEMENT_SET_NO": 999, "REV_AT_EPOCH": 411, "BSTAR": -0.039883413, "MEAN_MOTION_DOT": -0.02060913, "MEAN_MOTION_DDOT": 0}, "tle": {"line1": "1 66602U 25270Q   25345.58335648 -.02060913  00000+0 -39883-1 0  9991", "line2": "2 66602  42.9996 199.4328 0001667 263.1005 168.2533 15.50284932  4117"}}, "geometry": {"type": "Point", "coordinates": [-120.30383823068078, 32.73996200775031]}}, {"type": "Feature", "properties": {"norad_id": 66603, "name": "STARLINK-36048", "group": "last-30-days", "lat": 35.17977262399357, "lon": -114.79519867245331, "alt_km": 411.67996321130613, "timestamp": "2025-12-12T03:50:51.177339+00:00", "meta": {"OBJECT_NAME": "STARLINK-36048", "OBJECT_ID": "2025-270R", "EPOCH": "2025-12-11T14:00:01.999872", "MEAN_MOTION": 15.50870084, "ECCENTRICITY": 0.00017973, "INCLINATION": 42.9997, "RA_OF_ASC_NODE": 199.4276, "ARG_OF_PERICENTER": 249.1215, "MEAN_ANOMALY": 184.1611, "EPHEMERIS_TYPE": 0, "CLASSIFICATION_TYPE": "U", "NORAD_CAT_ID": 66603, "ELEMENT_SET_NO": 999, "REV_AT_EPOCH": 411, "BSTAR": -0.0092764324, "MEAN_MOTION_DOT": -0.00515554, "MEAN_MOTION_DDOT": 0}, "tle": {"line1": "1 66603U 25270R   25345.58335648 -.00515554  00000+0 -92764-2 0  9994", "line2": "2 66603  42.9997 199.4276 0001797 249.1215 184.1611 15.50870084  4115"}}, "geometry": {"type": "Point", "coordinates": [-114.79519867245331, 35.17977262399357]}}, {"type": "Feature", "properties": {"norad_id": 66604, "name": "STARLINK-35977", "group": "last-30-days", "lat": 36.02586534517942, "lon": -112.65267359494582, "alt_km": 411.3895756760239, "timestamp": "2025-12-12T03:50:51.177348+00:00", "meta": {"OBJECT_NAME": "STARLINK-35977", "OBJECT_ID": "2025-270S", "EPOCH": "2025-12-11T14:00:01.999872", "MEAN_MOTION": 15.50904443, "ECCENTRICITY": 0.00014238, "INCLINATION": 42.9996, "RA_OF_ASC_NODE": 199.4228, "ARG_OF_PERICENTER": 253.6217, "MEAN_ANOMALY": 181.5979, "EPHEMERIS_TYPE": 0, "CLASSIFICATION_TYPE": "U", "NORAD_CAT_ID": 66604, "ELEMENT_SET_NO": 999, "REV_AT_EPOCH": 421, "BSTAR": -0.010271366, "MEAN_MOTION_DOT": -0.00567716, "MEAN_MOTION_DDOT": 0}, "tle": {"line1": "1 66604U 25270S   25345.58335648 -.00567716  00000+0 -10271-1 0  9994", "line2": "2 66604  42.9996 199.4228 0001423 253.6217 181.5979 15.50904443  4216"}}, "geometry": {"type": "Point", "coordinates": [-112.65267359494582, 36.02586534517942]}}, {"type": "Feature", "properties": {"norad_id": 66605, "name": "STARLINK-36052", "group": "last-30-days", "lat": 36.82280829680398, "lon": -110.49348654660491, "alt_km": 410.7936320432618, "timestamp": "2025-12-12T03:50:51.177358+00:00", "meta": {"OBJECT_NAME": "STARLINK-36052", "OBJECT_ID": "2025-270T", "EPOCH": "2025-12-11T14:00:01.999872", "MEAN_MOTION": 15.50601331, "ECCENTRICITY": 0.00020887, "INCLINATION": 42.9999, "RA_OF_ASC_NODE": 199.4184, "ARG_OF_PERICENTER": 259.3718, "MEAN_ANOMALY": 177.7894, "EPHEMERIS_TYPE": 0, "CLASSIFICATION_TYPE": "U", "NORAD_CAT_ID": 66605, "ELEMENT_SET_NO": 999, "REV_AT_EPOCH": 421, "BSTAR": -0.00181813, "MEAN_MOTION_DOT": -0.00105667, "MEAN_MOTION_DDOT": 0}, "tle": {"line1": "1 66605U 25270T   25345.58335648 -.00105667  00000+0 -18181-2 0  9997", "line2": "2 66605  42.9999 199.4184 0002088 259.3718 177.7894 15.50601331  4211"}}, "geometry": {"type": "Point", "coordinates": [-110.49348654660491, 36.82280829680398]}}, {"type": "Feature", "properties": {"norad_id": 66606, "name": "STARLINK-36063", "group": "last-30-days", "lat": 38.29514612220455, "lon": -106.04019691263743, "alt_km": 410.51058965307675, "timestamp": "2025-12-12T03:50:51.177374+00:00", "meta": {"OBJECT_NAME": "STARLINK-36063", "OBJECT_ID": "2025-270U", "EPOCH": "2025-12-11T14:00:01.999872", "MEAN_MOTION": 15.50607465, "ECCENTRICITY": 0.00018365, "INCLINATION": 42.9998, "RA_OF_ASC_NODE": 199.4084, "ARG_OF_PERICENTER": 249.778, "MEAN_ANOMALY": 191.2205, "EPHEMERIS_TYPE": 0, "CLASSIFICATION_TYPE": "U", "NORAD_CAT_ID": 66606, "ELEMENT_SET_NO": 999, "REV_AT_EPOCH": 421, "BSTAR": -0.0020644569, "MEAN_MOTION_DOT": -0.00119746, "MEAN_MOTION_DDOT": 0}, "tle": {"line1": "1 66606U 25270U   25345.58335648 -.00119746  00000+0 -20645-2 0  9999", "line2": "2 66606  42.9998 199.4084 0001836 249.7780 191.2205 15.50607465  4213"}}, "geometry": {"type": "Point", "coordinates": [-106.04019691263743, 38.29514612220455]}}, {"type": "Feature", "properties": {"norad_id": 66607, "name": "STARLINK-35993", "group": "last-30-days", "lat": 37.5808789140456, "lon": -108.28527418798568, "alt_km": 410.61939001273913, "timestamp": "2025-12-12T03:50:51.177385+00:00", "meta": {"OBJECT_NAME": "STARLINK-35993", "OBJECT_ID": "2025-270V", "EPOCH": "2025-12-11T14:00:01.999872", "MEAN_MOTION": 15.50596827, "ECCENTRICITY": 0.00020036, "INCLINATION": 42.9997, "RA_OF_ASC_NODE": 199.4139, "ARG_OF_PERICENTER": 258.4658, "MEAN_ANOMALY": 180.6097, "EPHEMERIS_TYPE": 0, "CLASSIFICATION_TYPE": "U", "NORAD_CAT_ID": 66607, "ELEMENT_SET_NO": 999, "REV_AT_EPOCH": 411, "BSTAR": -0.0016397566, "MEAN_MOTION_DOT": -0.00095441, "MEAN_MOTION_DDOT": 0}, "tle": {"line1": "1 66607U 25270V   25345.58335648 -.00095441  00000+0 -16398-2 0  9995", "line2": "2 66607  42.9997 199.4139 0002003 258.4658 180.6097 15.50596827  4111"}}, "geometry": {"type": "Point", "coordinates": [-108.28527418798568, 37.5808789140456]}}]}